[{"ORDINAL":"1","COMMENT":"GENERATED VIA SPACETRACK.ORG API","ORIGINATOR":"JSPOC","NORAD_CAT_ID":"22981","OBJECT_NAME":"RADUGA 1-3","OBJECT_TYPE":"PAYLOAD","CLASSIFICATION_TYPE":"U","INTLDES":"94008A","EPOCH":"2016-06-22 02:03:12","EPOCH_MICROSECONDS":"613824","MEAN_MOTION":"1.0021512","ECCENTRICITY":"0.0002578","INCLINATION":"14.581","RA_OF_ASC_NODE":"20.4359","ARG_OF_PERICENTER":"160.1933","MEAN_ANOMALY":"193.2699","EPHEMERIS_TYPE":"0","ELEMENT_SET_NO":"999","REV_AT_EPOCH":"8194","BSTAR":"0","MEAN_MOTION_DOT":"-7.3e-07","MEAN_MOTION_DDOT":"0","FILE":"2050196","TLE_LINE0":"0 RADUGA 1-3","TLE_LINE1":"1 22981U 94008A   16174.08556266 -.00000073  00000-0  00000+0 0  9990","TLE_LINE2":"2 22981  14.5810  20.4359 0002578 160.1933 193.2699  1.00215120 81944","OBJECT_ID":"1994-008A","OBJECT_NUMBER":"22981","SEMIMAJOR_AXIS":"42180.624","PERIOD":"1436.908","APOGEE":"35813.363","PERIGEE":"35791.615"},{"ORDINAL":"1","COMMENT":"GENERATED VIA SPACETRACK.ORG API","ORIGINATOR":"JSPOC","NORAD_CAT_ID":"22996","OBJECT_NAME":"SJ-4","OBJECT_TYPE":"PAYLOAD","CLASSIFICATION_TYPE":"U","INTLDES":"94010A","EPOCH":"2016-06-22 12:21:13","EPOCH_MICROSECONDS":"535136","MEAN_MOTION":"4.58967746","ECCENTRICITY":"0.5666355","INCLINATION":"28.7005","RA_OF_ASC_NODE":"231.4426","ARG_OF_PERICENTER":"117.4862","MEAN_ANOMALY":"310.3653","EPHEMERIS_TYPE":"0","ELEMENT_SET_NO":"999","REV_AT_EPOCH":"27878","BSTAR":"8.1906e-05","MEAN_MOTION_DOT":"8.9e-06","MEAN_MOTION_DDOT":"0","FILE":"2050218","TLE_LINE0":"0 SJ-4","TLE_LINE1":"1 22996U 94010A   16174.51473999  .00000890  00000-0  81906-4 0  9993","TLE_LINE2":"2 22996  28.7005 231.4426 5666355 117.4862 310.3653  4.58967746278788","OBJECT_ID":"1994-010A","OBJECT_NUMBER":"22996","SEMIMAJOR_AXIS":"15294.914","PERIOD":"313.747","APOGEE":"17583.421","PERIGEE":"250.138"},{"ORDINAL":"1","COMMENT":"GENERATED VIA SPACETRACK.ORG API","ORIGINATOR":"JSPOC","NORAD_CAT_ID":"22999","OBJECT_NAME":"COSMOS 2268","OBJECT_TYPE":"PAYLOAD","CLASSIFICATION_TYPE":"U","INTLDES":"94011A","EPOCH":"2016-06-23 10:18:53","EPOCH_MICROSECONDS":"392032","MEAN_MOTION":"12.61142903","ECCENTRICITY":"0.0009995","INCLINATION":"82.5761","RA_OF_ASC_NODE":"142.4183","ARG_OF_PERICENTER":"159.5389","MEAN_ANOMALY":"3.3795","EPHEMERIS_TYPE":"0","ELEMENT_SET_NO":"999","REV_AT_EPOCH":"2940","BSTAR":"-3.8242e-05","MEAN_MOTION_DOT":"4e-08","MEAN_MOTION_DDOT":"0","FILE":"2050682","TLE_LINE0":"0 COSMOS 2268","TLE_LINE1":"1 22999U 94011A   16175.42978463  .00000004  00000-0 -38242-4 0  9997","TLE_LINE2":"2 22999  82.5761 142.4183 0009995 159.5389   3.3795 12.61142903 29408","OBJECT_ID":"1994-011A","OBJECT_NUMBER":"22999","SEMIMAJOR_AXIS":"7796.367","PERIOD":"114.182","APOGEE":"1426.025","PERIGEE":"1410.440"},{"ORDINAL":"1","COMMENT":"GENERATED VIA SPACETRACK.ORG API","ORIGINATOR":"JSPOC","NORAD_CAT_ID":"23000","OBJECT_NAME":"COSMOS 2269","OBJECT_TYPE":"PAYLOAD","CLASSIFICATION_TYPE":"U","INTLDES":"94011B","EPOCH":"2016-06-22 22:11:53","EPOCH_MICROSECONDS":"771424","MEAN_MOTION":"12.61872565","ECCENTRICITY":"0.0007099","INCLINATION":"82.5677","RA_OF_ASC_NODE":"129.2019","ARG_OF_PERICENTER":"157.9379","MEAN_ANOMALY":"255.648","EPHEMERIS_TYPE":"0","ELEMENT_SET_NO":"999","REV_AT_EPOCH":"2978","BSTAR":"-1.6201e-05","MEAN_MOTION_DOT":"8e-08","MEAN_MOTION_DDOT":"0","FILE":"2050785","TLE_LINE0":"0 COSMOS 2269","TLE_LINE1":"1 23000U 94011B   16174.92492791 +.00000008 +00000-0 -16201-4 0  9995","TLE_LINE2":"2 23000 082.5677 129.2019 0007099 157.9379 255.6480 12.61872565029781","OBJECT_ID":"1994-011B","OBJECT_NUMBER":"23000","SEMIMAJOR_AXIS":"7793.361","PERIOD":"114.116","APOGEE":"1420.759","PERIGEE":"1409.694"},{"ORDINAL":"1","COMMENT":"GENERATED VIA SPACETRACK.ORG API","ORIGINATOR":"JSPOC","NORAD_CAT_ID":"23001","OBJECT_NAME":"COSMOS 2270","OBJECT_TYPE":"PAYLOAD","CLASSIFICATION_TYPE":"U","INTLDES":"94011C","EPOCH":"2016-06-23 09:13:42","EPOCH_MICROSECONDS":"571200","MEAN_MOTION":"12.62833266","ECCENTRICITY":"0.0007402","INCLINATION":"82.5736","RA_OF_ASC_NODE":"124.0599","ARG_OF_PERICENTER":"161.4029","MEAN_ANOMALY":"317.419","EPHEMERIS_TYPE":"0","ELEMENT_SET_NO":"999","REV_AT_EPOCH":"3076","BSTAR":"9.2912e-05","MEAN_MOTION_DOT":"2.7e-07","MEAN_MOTION_DDOT":"0","FILE":"2050658","TLE_LINE0":"0 COSMOS 2270","TLE_LINE1":"1 23001U 94011C   16175.38452050  .00000027  00000-0  92912-4 0  9994","TLE_LINE2":"2 23001  82.5736 124.0599 0007402 161.4029 317.4190 12.62833266 30765","OBJECT_ID":"1994-011C","OBJECT_NUMBER":"23001","SEMIMAJOR_AXIS":"7789.408","PERIOD":"114.029","APOGEE":"1417.039","PERIGEE":"1405.508"},{"ORDINAL":"1","COMMENT":"GENERATED VIA SPACETRACK.ORG API","ORIGINATOR":"JSPOC","NORAD_CAT_ID":"23002","OBJECT_NAME":"COSMOS 2271","OBJECT_TYPE":"PAYLOAD","CLASSIFICATION_TYPE":"U","INTLDES":"94011D","EPOCH":"2016-06-22 22:20:00","EPOCH_MICROSECONDS":"476448","MEAN_MOTION":"12.6343376","ECCENTRICITY":"0.0007011","INCLINATION":"82.5658","RA_OF_ASC_NODE":"112.8559","ARG_OF_PERICENTER":"182.2181","MEAN_ANOMALY":"177.888","EPHEMERIS_TYPE":"0","ELEMENT_SET_NO":"999","REV_AT_EPOCH":"3102","BSTAR":"-1.4846e-05","MEAN_MOTION_DOT":"8e-08","MEAN_MOTION_DDOT":"0","FILE":"2050785","TLE_LINE0":"0 COSMOS 2271","TLE_LINE1":"1 23002U 94011D   16174.93056107 +.00000008 +00000-0 -14846-4 0  9998","TLE_LINE2":"2 23002 082.5658 112.8559 0007011 182.2181 177.8880 12.63433760031026","OBJECT_ID":"1994-011D","OBJECT_NUMBER":"23002","SEMIMAJOR_AXIS":"7786.940","PERIOD":"113.975","APOGEE":"1414.264","PERIGEE":"1403.346"},{"ORDINAL":"1","COMMENT":"GENERATED VIA SPACETRACK.ORG API","ORIGINATOR":"JSPOC","NORAD_CAT_ID":"23003","OBJECT_NAME":"COSMOS 2272","OBJECT_TYPE":"PAYLOAD","CLASSIFICATION_TYPE":"U","INTLDES":"94011E","EPOCH":"2016-06-23 03:50:11","EPOCH_MICROSECONDS":"821920","MEAN_MOTION":"12.64311565","ECCENTRICITY":"0.001196","INCLINATION":"82.5726","RA_OF_ASC_NODE":"108.5909","ARG_OF_PERICENTER":"162.086","MEAN_ANOMALY":"198.0656","EPHEMERIS_TYPE":"0","ELEMENT_SET_NO":"999","REV_AT_EPOCH":"3194","BSTAR":"9.1157e-05","MEAN_MOTION_DOT":"2.7e-07","MEAN_MOTION_DDOT":"0","FILE":"2050561","TLE_LINE0":"0 COSMOS 2272","TLE_LINE1":"1 23003U 94011E   16175.15985905  .00000027  00000-0  91157-4 0  9991","TLE_LINE2":"2 23003  82.5726 108.5909 0011960 162.0860 198.0656 12.64311565 31948","OBJECT_ID":"1994-011E","OBJECT_NUMBER":"23003","SEMIMAJOR_AXIS":"7783.335","PERIOD":"113.895","APOGEE":"1414.509","PERIGEE":"1395.891"},{"ORDINAL":"1","COMMENT":"GENERATED VIA SPACETRACK.ORG API","ORIGINATOR":"JSPOC","NORAD_CAT_ID":"23004","OBJECT_NAME":"COSMOS 2273","OBJECT_TYPE":"PAYLOAD","CLASSIFICATION_TYPE":"U","INTLDES":"94011F","EPOCH":"2016-06-22 21:35:08","EPOCH_MICROSECONDS":"922912","MEAN_MOTION":"12.62829259","ECCENTRICITY":"0.0005066","INCLINATION":"82.5748","RA_OF_ASC_NODE":"125.1664","ARG_OF_PERICENTER":"170.8812","MEAN_ANOMALY":"242.62","EPHEMERIS_TYPE":"0","ELEMENT_SET_NO":"999","REV_AT_EPOCH":"3050","BSTAR":"2.8245e-05","MEAN_MOTION_DOT":"1.6e-07","MEAN_MOTION_DDOT":"0","FILE":"2050785","TLE_LINE0":"0 COSMOS 2273","TLE_LINE1":"1 23004U 94011F   16174.89940883 +.00000016 +00000-0 +28245-4 0  9994","TLE_LINE2":"2 23004 082.5748 125.1664 0005066 170.8812 242.6200 12.62829259030504","OBJECT_ID":"1994-011F","OBJECT_NUMBER":"23004","SEMIMAJOR_AXIS":"7789.425","PERIOD":"114.029","APOGEE":"1415.236","PERIGEE":"1407.344"},{"ORDINAL":"1","COMMENT":"GENERATED VIA SPACETRACK.ORG API","ORIGINATOR":"JSPOC","NORAD_CAT_ID":"23010","OBJECT_NAME":"RADUGA 31","OBJECT_TYPE":"PAYLOAD","CLASSIFICATION_TYPE":"U","INTLDES":"94012A","EPOCH":"2016-06-22 16:59:12","EPOCH_MICROSECONDS":"916032","MEAN_MOTION":"1.00302459","ECCENTRICITY":"0.0001065","INCLINATION":"14.5533","RA_OF_ASC_NODE":"20.388","ARG_OF_PERICENTER":"126.146","MEAN_ANOMALY":"121.7955","EPHEMERIS_TYPE":"0","ELEMENT_SET_NO":"999","REV_AT_EPOCH":"8178","BSTAR":"0","MEAN_MOTION_DOT":"-3.36e-06","MEAN_MOTION_DDOT":"0","FILE":"2050785","TLE_LINE0":"0 RADUGA 31","TLE_LINE1":"1 23010U 94012A   16174.70778838 -.00000336 +00000-0 +00000-0 0  9992","TLE_LINE2":"2 23010 014.5533 020.3880 0001065 126.1460 121.7955 01.00302459081780","OBJECT_ID":"1994-012A","OBJECT_NUMBER":"23010","SEMIMAJOR_AXIS":"42156.135","PERIOD":"1435.657","APOGEE":"35782.489","PERIGEE":"35773.510"},{"ORDINAL":"1","COMMENT":"GENERATED VIA SPACETRACK.ORG API","ORIGINATOR":"JSPOC","NORAD_CAT_ID":"23016","OBJECT_NAME":"GALAXY 1R","OBJECT_TYPE":"PAYLOAD","CLASSIFICATION_TYPE":"U","INTLDES":"94013A","EPOCH":"2016-06-23 05:55:12","EPOCH_MICROSECONDS":"330336","MEAN_MOTION":"0.99216764","ECCENTRICITY":"0.0002675","INCLINATION":"8.3964","RA_OF_ASC_NODE":"46.8573","ARG_OF_PERICENTER":"180.3535","MEAN_ANOMALY":"179.6012","EPHEMERIS_TYPE":"0","ELEMENT_SET_NO":"999","REV_AT_EPOCH":"8103","BSTAR":"0.0001","MEAN_MOTION_DOT":"0","MEAN_MOTION_DDOT":"0","FILE":"2050783","TLE_LINE0":"0 GALAXY 1R","TLE_LINE1":"1 23016U 94013A   16175.24667049  .00000000  00000-0  10000-3 0  9991","TLE_LINE2":"2 23016   8.3964  46.8573 0002675 180.3535 179.6012  0.99216764 81034","OBJECT_ID":"1994-013A","OBJECT_NUMBER":"23016","SEMIMAJOR_AXIS":"42463.110","PERIOD":"1451.367","APOGEE":"36096.334","PERIGEE":"36073.616"},{"ORDINAL":"1","COMMENT":"GENERATED VIA SPACETRACK.ORG API","ORIGINATOR":"JSPOC","NORAD_CAT_ID":"23027","OBJECT_NAME":"NAVSTAR 36 (USA 100)","OBJECT_TYPE":"PAYLOAD","CLASSIFICATION_TYPE":"U","INTLDES":"94016A","EPOCH":"2016-06-23 05:30:08","EPOCH_MICROSECONDS":"718912","MEAN_MOTION":"2.0056578","ECCENTRICITY":"0.0110643","INCLINATION":"54.6132","RA_OF_ASC_NODE":"49.8365","ARG_OF_PERICENTER":"13.8245","MEAN_ANOMALY":"113.8205","EPHEMERIS_TYPE":"0","ELEMENT_SET_NO":"999","REV_AT_EPOCH":"16331","BSTAR":"0","MEAN_MOTION_DOT":"-4.7e-07","MEAN_MOTION_DDOT":"0","FILE":"2050733","TLE_LINE0":"0 NAVSTAR 36 (USA 100)","TLE_LINE1":"1 23027U 94016A   16175.22926758 -.00000047  00000-0  00000+0 0  9996","TLE_LINE2":"2 23027  54.6132  49.8365 0110643  13.8245 113.8205  2.00565780163317","OBJECT_ID":"1994-016A","OBJECT_NUMBER":"23027","SEMIMAJOR_AXIS":"26560.155","PERIOD":"717.968","APOGEE":"20475.890","PERIGEE":"19888.151"}]